STARLINK-35387          
1 65909U 25224AD  25299.25001157 -.02023846  00000+0 -21923-1 0  9996
2 65909  53.1600 278.4458 0001061  78.1102 285.5786 15.66214328  4228
STARLINK-35523          
1 65910U 25225A   25299.21928238  .00157401  00000+0  10574-2 0  9995
2 65910  53.1607  74.3117 0001100 102.0077 258.1067 15.74224642  3769
STARLINK-35160          
1 65911U 25225B   25299.21894656  .00226940  00000+0  15086-2 0  9990
2 65911  53.1601  74.3102 0001956  80.8286 279.2955 15.74248289  3765
STARLINK-35508          
1 65912U 25225C   25299.09162773  .00251548  00000+0  16661-2 0  9997
2 65912  53.1606  74.9368 0001009  94.4349 265.6787 15.74257687  3743
STARLINK-35472          
1 65913U 25225D   25299.09129023  .00255093  00000+0  16895-2 0  9997
2 65913  53.1604  74.9343 0000870  87.5672 272.5447 15.74248448  3747
STARLINK-35524          
1 65914U 25225E   25299.21793235  .00276190  00000+0  18215-2 0  9993
2 65914  53.1596  74.3034 0002373  78.1215 282.0070 15.74283425  3762
STARLINK-35539          
1 65915U 25225F   25299.21792688 -.00615478  00000+0 -48254-2 0  9999
2 65915  53.1603  74.3025 0006268  76.4170 283.7547 15.72586332  3768
STARLINK-35521          
1 65916U 25225G   25299.21725275  .00237362  00000+0  15749-2 0  9991
2 65916  53.1606  74.2966 0001173  99.6160 260.4992 15.74260408  3762
STARLINK-35478          
1 65917U 25225H   25299.21656996  .00231150  00000+0  15327-2 0  9996
2 65917  53.1607  74.2927 0001554  52.5136 307.6025 15.74293367  3766
STARLINK-35516          
1 65918U 25225J   25298.96295602  .00207951  00000+0  13843-2 0  9994
2 65918  53.1603  75.5553 0000618  63.4824 296.6260 15.74274436  3727
STARLINK-35519          
1 65919U 25225K   25299.21624095  .00267434  00000+0  17661-2 0  9990
2 65919  53.1601  74.2912 0002337  87.6913 272.4375 15.74278974  3762
STARLINK-33902          
1 65920U 25225L   25299.08892505  .00255589  00000+0  16923-2 0  9998
2 65920  53.1600  74.9172 0001407  76.7138 283.4039 15.74254173  3745
STARLINK-35530          
1 65921U 25225M   25299.21556290  .00203768  00000+0  13590-2 0  9991
2 65921  53.1600  74.2864 0001247  89.6852 270.4311 15.74243298  3762
STARLINK-35544          
1 65922U 25225N   25299.21522494  .00148544  00000+0  99918-3 0  9990
2 65922  53.1604  74.2826 0001085  75.1514 284.9626 15.74225549  3768
STARLINK-35484          
1 65923U 25225P   25299.08790952  .00228914  00000+0  15214-2 0  9998
2 65923  53.1603  74.9117 0001130  86.3463 273.7686 15.74246427  3744
STARLINK-34994          
1 65924U 25225Q   25299.08757254  .00260236  00000+0  17209-2 0  9996
2 65924  53.1599  74.9091 0001430  88.0929 272.0255 15.74269159  3740
STARLINK-35458          
1 65925U 25225R   25299.21387285  .00198943  00000+0  13277-2 0  9991
2 65925  53.1599  74.2748 0001212 105.8614 254.2539 15.74243107  3764
STARLINK-35492          
1 65926U 25225S   25299.21421233  .00274126  00000+0  18088-2 0  9997
2 65926  53.1598  74.2764 0002295  86.3468 273.7814 15.74278074  3767
STARLINK-35494          
1 65927U 25225T   25299.21353610  .00179937  00000+0  12043-2 0  9990
2 65927  53.1603  74.2710 0001646  90.5637 269.5572 15.74236649  3766
STARLINK-35493          
1 65928U 25225U   25299.21285932  .00158260  00000+0  10630-2 0  9998
2 65928  53.1607  74.2657 0001121  97.5297 262.5850 15.74226374  3764
STARLINK-35175          
1 65929U 25225V   25298.95856589  .00139166  00000+0  93703-3 0  9998
2 65929  53.1598  75.5243 0000982  61.8550 298.2569 15.74235193  3727
STARLINK-35513          
1 65930U 25225W   25299.21319853  .00289496  00000+0  19059-2 0  9991
2 65930  53.1604  74.2687 0002390  86.4241 273.7052 15.74285155  3762
STARLINK-35526          
1 65931U 25225X   25299.21218292  .00233915  00000+0  15529-2 0  9990
2 65931  53.1603  74.2613 0001075 117.6724 242.4406 15.74257424  3767
STARLINK-35436          
1 65932U 25225Y   25299.27533578  .00260740  00000+0  17257-2 0  9990
2 65932  53.1595  73.9454 0001263 113.0980 247.0173 15.74247750  3774
STARLINK-35192          
1 65933U 25225Z   25299.27431810  .00201713  00000+0  13464-2 0  9998
2 65933  53.1599  73.9371 0000330 142.6614 217.4429 15.74230195  3773
STARLINK-33921          
1 65934U 25225AA  25299.21150803  .00227971  00000+0  15149-2 0  9999
2 65934  53.1602  74.2582 0000732 100.2283 259.8820 15.74253456  2875
STARLINK-35155          
1 65935U 25225AB  25299.27465630  .00208409  00000+0  13901-2 0  9992
2 65935  53.1599  73.9397 0000183  95.0205 265.0836 15.74226894  2889
STARLINK-35161          
1 65936U 25225AC  25299.27398294  .00200866  00000+0  13403-2 0  9990
2 65936  53.1595  73.9357 0001171  53.4759 306.6369 15.74241152  2889
STARLINK-35473          
1 65937U 25225AD  25299.27364094  .00250309  00000+0  16584-2 0  9992
2 65937  53.1595  73.9339 0000405 160.4096 199.6940 15.74254055  2883
2025-226A               
1 65938U 25226A   25299.30130993  .00010293  00000+0  60634-3 0  9999
2 65938  97.6663  13.4757 0014493 229.1174 130.8801 15.11712336  2300
2025-226B               
1 65939U 25226B   25299.31653053  .00005533  00000+0  34651-3 0  9999
2 65939  97.6622  13.4483 0020445 232.3181 127.6194 15.09621301  2295
2025-226C               
1 65940U 25226C   25299.30243065  .00010116  00000+0  59784-3 0  9995
2 65940  97.6571  13.4582 0014428 226.9803 133.0219 15.11600697  2291
YOTSUBA-KULOVER         
1 65941U 98067XN  25299.24441333  .00050829  00000+0  81754-3 0  9997
2 65941  51.6333  17.3832 0002410 309.1858  50.8918 15.52475324  2464
BOTAN                   
1 65942U 98067XP  25299.24137569  .00066958  00000+0  10490-2 0  9999
2 65942  51.6336  17.3634 0004234 332.8150  27.2618 15.53081115  2469
E-KAGAKU-1              
1 65943U 98067XQ  25299.24402476  .00049616  00000+0  79771-3 0  9992
2 65943  51.6335  17.3807 0004121 323.1871  36.8835 15.52492087  2469
2025-226D               
1 65944U 25226D   25290.94606692 -.00000071  00000+0  00000+0 0  9992
2 65944  97.6632   5.1263 0019022 287.2735  72.6416 15.16526485  1020
SHIYAN-31               
1 65945U 25227A   25299.29626801  .00008634  00000+0  39696-3 0  9994
2 65945  80.0032  84.8855 0011300 225.3765 134.6541 15.20207924  1969
CZ-2D R/B               
1 65946U 25227B   25299.23751432  .00010830  00000+0  40185-3 0  9994
2 65946  80.1540  85.2199 0021538 353.2724   6.8214 15.27266231  1961
KUIPER-00101            
1 65947U 25228A   25299.25721116  .00017198  00000+0  51590-3 0  9990
2 65947  51.8804 249.3035 0005870 178.7281 181.3720 15.34548797  3120
KUIPER-00113            
1 65948U 25228B   25299.25517068  .00017313  00000+0  51514-3 0  9995
2 65948  51.8807 249.2934 0006337 175.0353 185.0697 15.34799437  3123
KUIPER-00117            
1 65949U 25228C   25299.25549725  .00020378  00000+0  60496-3 0  9995
2 65949  51.8808 249.2956 0006065 175.2692 184.8352 15.34758307  3121
KUIPER-00121            
1 65950U 25228D   25299.26036351  .00021082  00000+0  63699-3 0  9995
2 65950  51.8815 249.3303 0005626 194.1063 165.9766 15.34179753  3123
KUIPER-00122            
1 65951U 25228E   25299.19612434  .00027854  00000+0  84090-3 0  9991
2 65951  51.8806 249.6449 0005930 200.7470 159.3276 15.34039723  3116
KUIPER-00123            
1 65952U 25228F   25299.26042580  .00030060  00000+0  90422-3 0  9998
2 65952  51.8802 249.3244 0005383 189.4594 170.6291 15.34115972  3120
KUIPER-00124            
1 65953U 25228G   25299.26166510  .00017458  00000+0  53277-3 0  9992
2 65953  51.8811 249.3365 0005539 203.3742 156.6992 15.33995628  3124
KUIPER-00125            
1 65954U 25228H   25299.25834581  .00018083  00000+0  54425-3 0  9993
2 65954  51.8801 249.3101 0005724 184.7013 175.3919 15.34407865  3120
KUIPER-00126            
1 65955U 25228J   25299.26086864  .00018783  00000+0  56962-3 0  9993
2 65955  51.8806 249.3298 0006011 198.7600 161.3164 15.34137955  3127
KUIPER-00127            
1 65956U 25228K   25299.25576415  .00032633  00000+0  96129-3 0  9998
2 65956  51.8808 249.2986 0005912 176.2878 183.8152 15.34732652  3121
KUIPER-00128            
1 65957U 25228L   25299.25753923  .00020824  00000+0  62279-3 0  9998
2 65957  51.8811 249.3115 0005739 180.2299 179.8685 15.34510645  3122
KUIPER-00129            
1 65958U 25228M   25299.25716239  .00025320  00000+0  75403-3 0  9997
2 65958  51.8811 249.3085 0005915 175.1049 184.9996 15.34524530  3121
KUIPER-00130            
1 65959U 25228N   25299.25921263  .00017595  00000+0  53117-3 0  9996
2 65959  51.8801 249.3163 0005298 190.6573 169.4301 15.34333753  3129
KUIPER-00134            
1 65960U 25228P   25299.26000364  .00022520  00000+0  67865-3 0  9998
2 65960  51.8800 249.3213 0005136 195.6748 164.4080 15.34223546  3123
KUIPER-00135            
1 65961U 25228Q   25299.25959363  .00032135  00000+0  96231-3 0  9992
2 65961  51.8816 249.3267 0005056 182.9307 177.1650 15.34225299  3122
KUIPER-00136            
1 65962U 25228R   25299.25632337  .00028185  00000+0  83414-3 0  9991
2 65962  51.8809 249.3032 0005774 179.1719 180.9277 15.34662831  3121
KUIPER-00137            
1 65963U 25228S   25299.25926968  .00028368  00000+0  84884-3 0  9993
2 65963  51.8815 249.3234 0005277 190.5219 169.5657 15.34314002  3122
KUIPER-00138            
1 65964U 25228T   25299.26059925  .00034445  00000+0  10337-2 0  9999
2 65964  51.8805 249.3278 0005820 202.6319 157.4411 15.34118453  3126
KUIPER-00140            
1 65965U 25228U   25299.26127235  .00034007  00000+0  10219-2 0  9993
2 65965  51.8812 249.3342 0005594 203.5584 156.5146 15.34086523  3126
KUIPER-00141            
1 65966U 25228V   25299.25783392  .00017654  00000+0  53057-3 0  9992
2 65966  51.8802 249.3070 0005770 181.1252 178.9722 15.34470514  3128
KUIPER-00146            
1 65967U 25228W   25299.25810808  .00026595  00000+0  79327-3 0  9998
2 65967  51.8814 249.3160 0005699 183.5023 176.5924 15.34447393  3121
